[{"OBJECT_NAME":"YUNYAO-1 45","OBJECT_ID":"2025-059C","EPOCH":"2026-03-09T23:25:14.115648","MEAN_MOTION":15.10348188,"ECCENTRICITY":0.00171316,"INCLINATION":97.6099,"RA_OF_ASC_NODE":251.0366,"ARG_OF_PERICENTER":134.7318,"MEAN_ANOMALY":225.5309,"EPHEMERIS_TYPE":0,"CLASSIFICATION_TYPE":"U","NORAD_CAT_ID":63346,"ELEMENT_SET_NO":999,"REV_AT_EPOCH":5332,"BSTAR":0.00033512738,"MEAN_MOTION_DOT":5.451e-5,"MEAN_MOTION_DDOT":0},{"OBJECT_NAME":"STARLINK-33926","OBJECT_ID":"2025-112B","EPOCH":"2026-03-09T17:03:00.719136","MEAN_MOTION":15.05657844,"ECCENTRICITY":9.324e-5,"INCLINATION":97.6022,"RA_OF_ASC_NODE":121.5702,"ARG_OF_PERICENTER":218.1619,"MEAN_ANOMALY":141.9542,"EPHEMERIS_TYPE":0,"CLASSIFICATION_TYPE":"U","NORAD_CAT_ID":64147,"ELEMENT_SET_NO":999,"REV_AT_EPOCH":4331,"BSTAR":-8.3852954e-5,"MEAN_MOTION_DOT":-1.271e-5,"MEAN_MOTION_DDOT":0}]
